"id","site_name","lac_id","cell_name","cell_id","laccellid","antenna_direction","cell_beamspan","cell_beamrange","latitude","longitude","site_address","union_ward","thana","district","division","bts_type","operator","cell_type_2g_3g","createat","updateat"
"1","DHK_X1890","101","DHK_X1890_1","8891","1018891","0","120","1000","24.87601","90.72139","Anondo Bazar, Netrokona Sadar, Netrokona","Not Provided","Not Provided","Not Provided","Not Provided","Regular- 2G","BANGLALINK","Regular- 2G","2018-05-15 18:11:56","2018-05-15 18:11:56"
"2","DHK_X1890","101","DHK_X1890_2","8892","1018892","160","120","1000","24.87601","90.72139","Anondo Bazar, Netrokona Sadar, Netrokona","Not Provided","Not Provided","Not Provided","Not Provided","Regular- 2G","BANGLALINK","Regular- 2G","2018-05-15 18:11:56","2018-05-15 18:11:56"
"3","DHK_X1890","101","DHK_X1890_3","8893","1018893","250","120","1000","24.87601","90.72139","Anondo Bazar, Netrokona Sadar, Netrokona","Not Provided","Not Provided","Not Provided","Not Provided","Regular- 2G","BANGLALINK","Regular- 2G","2018-05-15 18:11:56","2018-05-15 18:11:56"
"4","DHK_X0250","101","DHK_X0250_1","12491","10112491","0","120","1000","24.884988","90.732168","Syed Manson , Tere Bazar Road, Natrakuna","Not Provided","Not Provided","Not Provided","Not Provided","Regular- 2G","BANGLALINK","Regular- 2G","2018-05-15 18:11:56","2018-05-15 18:11:56"
"5","DHK_X0250","101","DHK_X0250_2","12492","10112492","110","120","1000","24.884988","90.732168","Syed Manson , Tere Bazar Road, Natrakuna","Not Provided","Not Provided","Not Provided","Not Provided","Regular- 2G","BANGLALINK","Regular- 2G","2018-05-15 18:11:56","2018-05-15 18:11:56"
"6","DHK_X0250","101","DHK_X0250_3","12493","10112493","260","120","1000","24.884988","90.732168","Syed Manson , Tere Bazar Road, Natrakuna","Not Provided","Not Provided","Not Provided","Not Provided","Regular- 2G","BANGLALINK","Regular- 2G","2018-05-15 18:11:56","2018-05-15 18:11:56"
"7","DHK_X0251","101","DHK_X0251_1","12501","10112501","350","120","1000","24.88715","90.72299","Amena Bhaban,Professor Para,Netrokuna","Not Provided","Not Provided","Not Provided","Not Provided","Regular- 2G","BANGLALINK","Regular- 2G","2018-05-15 18:11:56","2018-05-15 18:11:56"
"8","DHK_X0251","101","DHK_X0251_2","12502","10112502","110","120","1000","24.88715","90.72299","Amena Bhaban,Professor Para,Netrokuna","Not Provided","Not Provided","Not Provided","Not Provided","Regular- 2G","BANGLALINK","Regular- 2G","2018-05-15 18:11:56","2018-05-15 18:11:56"
"9","DHK_X0251","101","DHK_X0251_3","12503","10112503","270","120","1000","24.88715","90.72299","Amena Bhaban,Professor Para,Netrokuna","Not Provided","Not Provided","Not Provided","Not Provided","Regular- 2G","BANGLALINK","Regular- 2G","2018-05-15 18:11:56","2018-05-15 18:11:56"
"10","DHK_X0251","101","DHK_X0251_6","12506","10112506","300","120","1000","24.88715","90.72299","Amena Bhaban,Professor Para,Netrokuna","Not Provided","Not Provided","Not Provided","Not Provided","Regular- 2G","BANGLALINK","Regular- 2G","2018-05-15 18:11:56","2018-05-15 18:11:56"
"11","DHK_X2101","101","DHK_X2101_1","21001","10121001","10","120","1000","24.84936","90.64365","Suruj Ali Fakir, Hironpur bazar, Netrokona","Not Provided","Not Provided","Not Provided","Not Provided","Regular- 2G","BANGLALINK","Regular- 2G","2018-05-15 18:11:56","2018-05-15 18:11:56"
"12","DHK_X2101","101","DHK_X2101_2","21002","10121002","140","120","1000","24.84936","90.64365","Suruj Ali Fakir, Hironpur bazar, Netrokona","Not Provided","Not Provided","Not Provided","Not Provided","Regular- 2G","BANGLALINK","Regular- 2G","2018-05-15 18:11:56","2018-05-15 18:11:56"
"13","DHK_X2101","101","DHK_X2101_3","21003","10121003","270","120","1000","24.84936","90.64365","Suruj Ali Fakir, Hironpur bazar, Netrokona","Not Provided","Not Provided","Not Provided","Not Provided","Regular- 2G","BANGLALINK","Regular- 2G","2018-05-15 18:11:56","2018-05-15 18:11:56"
"14","DHK_X2101","101","DHK_X2101_4","21004","10121004","10","120","1000","24.84936","90.64365","Suruj Ali Fakir, Hironpur bazar, Netrokona","Not Provided","Not Provided","Not Provided","Not Provided","Regular- 2G","BANGLALINK","Regular- 2G","2018-05-15 18:11:56","2018-05-15 18:11:56"
"15","DHK_X2101","101","DHK_X2101_5","21005","10121005","140","120","1000","24.84936","90.64365","Suruj Ali Fakir, Hironpur bazar, Netrokona","Not Provided","Not Provided","Not Provided","Not Provided","Regular- 2G","BANGLALINK","Regular- 2G","2018-05-15 18:11:56","2018-05-15 18:11:56"
"16","DHK_X2101","101","DHK_X2101_6","21006","10121006","270","120","1000","24.84936","90.64365","Suruj Ali Fakir, Hironpur bazar, Netrokona","Not Provided","Not Provided","Not Provided","Not Provided","Regular- 2G","BANGLALINK","Regular- 2G","2018-05-15 18:11:56","2018-05-15 18:11:56"
"17","DHK_G2535","101","DHK_G2535_1","25341","10125341","320","120","1000","24.73123","90.6773","Pachar Bazar,Gauripur,Mymensingh","Not Provided","Not Provided","Not Provided","Not Provided","Regular- 2G","BANGLALINK","Regular- 2G","2018-05-15 18:11:56","2018-05-15 18:11:56"
"18","DHK_G2535","101","DHK_G2535_2","25342","10125342","120","120","1000","24.73123","90.6773","Pachar Bazar,Gauripur,Mymensingh","Not Provided","Not Provided","Not Provided","Not Provided","Regular- 2G","BANGLALINK","Regular- 2G","2018-05-15 18:11:56","2018-05-15 18:11:56"
"19","DHK_G2535","101","DHK_G2535_3","25343","10125343","230","120","1000","24.73123","90.6773","Pachar Bazar,Gauripur,Mymensingh","Not Provided","Not Provided","Not Provided","Not Provided","Regular- 2G","BANGLALINK","Regular- 2G","2018-05-15 18:11:56","2018-05-15 18:11:56"
"20","DHK_G2535","101","DHK_G2535_4","25344","10125344","320","120","1000","24.73123","90.6773","Pachar Bazar,Gauripur,Mymensingh","Not Provided","Not Provided","Not Provided","Not Provided","Regular- 2G","BANGLALINK","Regular- 2G","2018-05-15 18:11:56","2018-05-15 18:11:56"
"21","DHK_G2535","101","DHK_G2535_6","25346","10125346","230","120","1000","24.73123","90.6773","Pachar Bazar,Gauripur,Mymensingh","Not Provided","Not Provided","Not Provided","Not Provided","Regular- 2G","BANGLALINK","Regular- 2G","2018-05-15 18:11:56","2018-05-15 18:11:56"
"22","DHK_W5257","101","DHK_W5257_1","25610","10125610","0","120","1000","24.86721","90.683","Chollisha Bazar, Netrokona.","Not Provided","Not Provided","Not Provided","Not Provided","Regular- 2G","BANGLALINK","Regular- 2G","2018-05-15 18:11:56","2018-05-15 18:11:56"
"23","DHK_W5257","101","DHK_W5257_2","25620","10125620","120","120","1000","24.86721","90.683","Chollisha Bazar, Netrokona.","Not Provided","Not Provided","Not Provided","Not Provided","Regular- 2G","BANGLALINK","Regular- 2G","2018-05-15 18:11:56","2018-05-15 18:11:56"
"24","DHK_W5257","101","DHK_W5257_3","25630","10125630","240","120","1000","24.86721","90.683","Chollisha Bazar, Netrokona.","Not Provided","Not Provided","Not Provided","Not Provided","Regular- 2G","BANGLALINK","Regular- 2G","2018-05-15 18:11:56","2018-05-15 18:11:56"
"25","DHK_W5257","101","DHK_W5257_4","25640","10125640","0","120","1000","24.86721","90.683","Chollisha Bazar, Netrokona.","Not Provided","Not Provided","Not Provided","Not Provided","Regular- 2G","BANGLALINK","Regular- 2G","2018-05-15 18:11:56","2018-05-15 18:11:56"
"26","DHK_W5257","101","DHK_W5257_5","25650","10125650","120","120","1000","24.86721","90.683","Chollisha Bazar, Netrokona.","Not Provided","Not Provided","Not Provided","Not Provided","Regular- 2G","BANGLALINK","Regular- 2G","2018-05-15 18:11:56","2018-05-15 18:11:56"
"27","DHK_X2566","101","DHK_X2566_1","25651","10125651","0","120","1000","24.89388","90.74093","Rajur Bazar(Medni) , Netrokona Sadar","Not Provided","Not Provided","Not Provided","Not Provided","Regular- 2G","BANGLALINK","Regular- 2G","2018-05-15 18:11:56","2018-05-15 18:11:56"
"28","DHK_X2566","101","DHK_X2566_2","25652","10125652","110","120","1000","24.89388","90.74093","Rajur Bazar(Medni) , Netrokona Sadar","Not Provided","Not Provided","Not Provided","Not Provided","Regular- 2G","BANGLALINK","Regular- 2G","2018-05-15 18:11:56","2018-05-15 18:11:56"
"29","DHK_X2566","101","DHK_X2566_3","25653","10125653","250","120","1000","24.89388","90.74093","Rajur Bazar(Medni) , Netrokona Sadar","Not Provided","Not Provided","Not Provided","Not Provided","Regular- 2G","BANGLALINK","Regular- 2G","2018-05-15 18:11:56","2018-05-15 18:11:56"
"30","DHK_X2566","101","DHK_X2566_5","25655","10125655","110","120","1000","24.89388","90.74093","Rajur Bazar(Medni) , Netrokona Sadar","Not Provided","Not Provided","Not Provided","Not Provided","Regular- 2G","BANGLALINK","Regular- 2G","2018-05-15 18:11:56","2018-05-15 18:11:56"
"31","DHK_W5257","101","DHK_W5257_6","25660","10125660","240","120","1000","24.86721","90.683","Chollisha Bazar, Netrokona.","Not Provided","Not Provided","Not Provided","Not Provided","Regular- 2G","BANGLALINK","Regular- 2G","2018-05-15 18:11:56","2018-05-15 18:11:56"
"32","DHK_W2568","101","DHK_W2568_1","25671","10125671","10","120","1000","24.87455","90.72896","House#1332/7, Muktarpur, Netrokona Sadar.","Not Provided","Not Provided","Not Provided","Not Provided","Regular- 2G","BANGLALINK","Regular- 2G","2018-05-15 18:11:56","2018-05-15 18:11:56"
"33","DHK_W2568","101","DHK_W2568_2","25672","10125672","130","120","1000","24.87455","90.72896","House#1332/7, Muktarpur, Netrokona Sadar.","Not Provided","Not Provided","Not Provided","Not Provided","Regular- 2G","BANGLALINK","Regular- 2G","2018-05-15 18:11:56","2018-05-15 18:11:56"
"34","DHK_W2568","101","DHK_W2568_3","25673","10125673","280","120","1000","24.87455","90.72896","House#1332/7, Muktarpur, Netrokona Sadar.","Not Provided","Not Provided","Not Provided","Not Provided","Regular- 2G","BANGLALINK","Regular- 2G","2018-05-15 18:11:56","2018-05-15 18:11:56"
"35","DHK_X5258","101","DHK_X5258_1","25710","10125710","10","120","1000","24.93212","90.75582","Baroari Bazar,Netrokona Sadar,Netrokona","Not Provided","Not Provided","Not Provided","Not Provided","Regular- 2G","BANGLALINK","Regular- 2G","2018-05-15 18:11:56","2018-05-15 18:11:56"
"36","DHK_X5258","101","DHK_X5258_2","25720","10125720","110","120","1000","24.93212","90.75582","Baroari Bazar,Netrokona Sadar,Netrokona","Not Provided","Not Provided","Not Provided","Not Provided","Regular- 2G","BANGLALINK","Regular- 2G","2018-05-15 18:11:56","2018-05-15 18:11:56"
"37","DHK_X5258","101","DHK_X5258_3","25730","10125730","250","120","1000","24.93212","90.75582","Baroari Bazar,Netrokona Sadar,Netrokona","Not Provided","Not Provided","Not Provided","Not Provided","Regular- 2G","BANGLALINK","Regular- 2G","2018-05-15 18:11:56","2018-05-15 18:11:56"
"38","DHK_X5258","101","DHK_X5258_4","25740","10125740","10","120","1000","24.93212","90.75582","Baroari Bazar,Netrokona Sadar,Netrokona","Not Provided","Not Provided","Not Provided","Not Provided","Regular- 2G","BANGLALINK","Regular- 2G","2018-05-15 18:11:56","2018-05-15 18:11:56"
"39","DHK_X5258","101","DHK_X5258_5","25750","10125750","110","120","1000","24.93212","90.75582","Baroari Bazar,Netrokona Sadar,Netrokona","Not Provided","Not Provided","Not Provided","Not Provided","Regular- 2G","BANGLALINK","Regular- 2G","2018-05-15 18:11:56","2018-05-15 18:11:56"
"40","DHK_X5258","101","DHK_X5258_6","25760","10125760","250","120","1000","24.93212","90.75582","Baroari Bazar,Netrokona Sadar,Netrokona","Not Provided","Not Provided","Not Provided","Not Provided","Regular- 2G","BANGLALINK","Regular- 2G","2018-05-15 18:11:56","2018-05-15 18:11:56"
"41","DHK_G5262","101","DHK_G5262_1","26110","10126110","10","120","1000","24.75446","90.7155","Bekhurati Bazar,Kendua,Netrokona","Not Provided","Not Provided","Not Provided","Not Provided","Regular- 2G","BANGLALINK","Regular- 2G","2018-05-15 18:11:56","2018-05-15 18:11:56"
"42","DHK_G5262","101","DHK_G5262_2","26120","10126120","100","120","1000","24.75446","90.7155","Bekhurati Bazar,Kendua,Netrokona","Not Provided","Not Provided","Not Provided","Not Provided","Regular- 2G","BANGLALINK","Regular- 2G","2018-05-15 18:11:56","2018-05-15 18:11:56"
"43","DHK_G5262","101","DHK_G5262_3","26130","10126130","240","120","1000","24.75446","90.7155","Bekhurati Bazar,Kendua,Netrokona","Not Provided","Not Provided","Not Provided","Not Provided","Regular- 2G","BANGLALINK","Regular- 2G","2018-05-15 18:11:56","2018-05-15 18:11:56"
"44","DHK_G5262","101","DHK_G5262_4","26140","10126140","10","120","1000","24.75446","90.7155","Bekhurati Bazar,Kendua,Netrokona","Not Provided","Not Provided","Not Provided","Not Provided","Regular- 2G","BANGLALINK","Regular- 2G","2018-05-15 18:11:56","2018-05-15 18:11:56"
"45","DHK_G5262","101","DHK_G5262_5","26150","10126150","100","120","1000","24.75446","90.7155","Bekhurati Bazar,Kendua,Netrokona","Not Provided","Not Provided","Not Provided","Not Provided","Regular- 2G","BANGLALINK","Regular- 2G","2018-05-15 18:11:56","2018-05-15 18:11:56"
"46","DHK_G5262","101","DHK_G5262_6","26160","10126160","240","120","1000","24.75446","90.7155","Bekhurati Bazar,Kendua,Netrokona","Not Provided","Not Provided","Not Provided","Not Provided","Regular- 2G","BANGLALINK","Regular- 2G","2018-05-15 18:11:56","2018-05-15 18:11:56"
"47","DHK_X5263","101","DHK_X5263_1","26210","10126210","20","120","1000","24.71129","90.69693","Bhuiyan Bazar, Kendua, Netrokona, Dhaka","Not Provided","Not Provided","Not Provided","Not Provided","Regular- 2G","BANGLALINK","Regular- 2G","2018-05-15 18:11:56","2018-05-15 18:11:56"
"48","DHK_X5263","101","DHK_X5263_2","26220","10126220","130","120","1000","24.71129","90.69693","Bhuiyan Bazar, Kendua, Netrokona, Dhaka","Not Provided","Not Provided","Not Provided","Not Provided","Regular- 2G","BANGLALINK","Regular- 2G","2018-05-15 18:11:56","2018-05-15 18:11:56"
"49","DHK_X5263","101","DHK_X5263_3","26230","10126230","240","120","1000","24.71129","90.69693","Bhuiyan Bazar, Kendua, Netrokona, Dhaka","Not Provided","Not Provided","Not Provided","Not Provided","Regular- 2G","BANGLALINK","Regular- 2G","2018-05-15 18:11:56","2018-05-15 18:11:56"
"50","CXKAB1","22003","CXKAB1A","8057","220038057","350","120","1000","21.61","91.981","Kayedabad Bazar, COX BAZAR  BD","Not Provided","Not Provided","Not Provided","Not Provided","Regular- 2G","GRAMEENPHONE","Regular- 2G","2018-05-15 18:11:56","2018-05-15 18:11:56"
"51","CXKAB1","22003","CXKAB1B","8058","220038058","150","120","1000","21.61","91.981","Kayedabad Bazar, COX BAZAR  BD","Not Provided","Not Provided","Not Provided","Not Provided","Regular- 2G","GRAMEENPHONE","Regular- 2G","2018-05-15 18:11:56","2018-05-15 18:11:56"
"52","CXKAB1","22003","CXKAB1C","8059","220038059","230","120","1000","21.61","91.981","Kayedabad Bazar, COX BAZAR  BD","Not Provided","Not Provided","Not Provided","Not Provided","Regular- 2G","GRAMEENPHONE","Regular- 2G","2018-05-15 18:11:56","2018-05-15 18:11:56"
"53","CXFIS1","22003","CXFIS1A","8045","220038045","20","120","1000","21.603","92.0614","Fasiakhali.Notun offcie Islampur, COX BAZAR  BD","Not Provided","Not Provided","Not Provided","Not Provided","Regular- 2G","GRAMEENPHONE","Regular- 2G","2018-05-15 18:11:56","2018-05-15 18:11:56"
"54","CXFIS1","22003","CXFIS1B","8046","220038046","185","120","1000","21.603","92.0614","Fasiakhali.Notun offcie Islampur, COX BAZAR  BD","Not Provided","Not Provided","Not Provided","Not Provided","Regular- 2G","GRAMEENPHONE","Regular- 2G","2018-05-15 18:11:56","2018-05-15 18:11:56"
"55","CXFIS1","22003","CXFIS1C","8047","220038047","235","120","1000","21.603","92.0614","Fasiakhali.Notun offcie Islampur, COX BAZAR  BD","Not Provided","Not Provided","Not Provided","Not Provided","Regular- 2G","GRAMEENPHONE","Regular- 2G","2018-05-15 18:11:56","2018-05-15 18:11:56"
"56","CXKKB1","22003","CXKKB1D","3117","220033117","115","120","1000","21.616","92.0701","Kutakhali,Kutakhali,Chokoria,Coxs Bazar","Not Provided","Not Provided","Not Provided","Not Provided","Regular- 2G","GRAMEENPHONE","Regular- 2G","2018-05-15 18:11:56","2018-05-15 18:11:56"
"57","CXKTB1","22002","CXKTB1D","3119","220023119","90","120","1000","21.2757","92.1035","Fazlul Haque Plaza, Court Bazar, Ratna Palong, Ukhiya, Coxsbazar,,CoxsBazar","Not Provided","Not Provided","Not Provided","Not Provided","Regular- 2G","GRAMEENPHONE","Regular- 2G","2018-05-15 18:11:56","2018-05-15 18:11:56"
"58","CXMHK2","22003","CXMHK2E","3118","220033118","180","120","1000","21.52","91.9642","Gorokghata Thana Parisad Area,Gorokghata Bazar,Moheshkhali,CoxsBazar","Not Provided","Not Provided","Not Provided","Not Provided","Regular- 2G","GRAMEENPHONE","Regular- 2G","2018-05-15 18:11:56","2018-05-15 18:11:56"
"59","CXCRG1","22003","CXCRG1D","3116","220033116","100","120","1000","21.7642","92.0757","Chakaria New Market, Block D, Ward No. 2, Cheringa, Chakaria, Coxs Bazar,Coxs Bazar Sadar,Coxs Bazar Sadar,CoxsBazar","Not Provided","Not Provided","Not Provided","Not Provided","Regular- 2G","GRAMEENPHONE","Regular- 2G","2018-05-15 18:11:56","2018-05-15 18:11:56"
"60","CXSMP1","22002","CXSMP1D","1187","220021187","135","120","1000","21.0756","92.1432","Shamlapur,Baharchora,Teknaf,Coxs Bazar","Not Provided","Not Provided","Not Provided","Not Provided","Regular- 2G","GRAMEENPHONE","Regular- 2G","2018-05-15 18:11:56","2018-05-15 18:11:56"
"61","CXINN1","22002","CXINN1A","44476","2200244476","5","120","1000","21.2228","92.0499","Mohammad Shofir Bil Patowar Tek,Inani,Ukhia,Coxs Bazar","Not Provided","Not Provided","Not Provided","Not Provided","Regular- 2G","GRAMEENPHONE","Regular- 2G","2018-05-15 18:11:56","2018-05-15 18:11:56"
"62","CXINN1","22002","CXINN1B","44477","2200244477","180","120","1000","21.2228","92.0499","Mohammad Shofir Bil Patowar Tek,Inani,Ukhia,Coxs Bazar","Not Provided","Not Provided","Not Provided","Not Provided","Regular- 2G","GRAMEENPHONE","Regular- 2G","2018-05-15 18:11:56","2018-05-15 18:11:56"
"63","CXBDR1","22002","CXBDR1A","44473","2200244473","100","120","1000","20.8719","92.2816","JCO Family Quarter, 42 Border Guard Battalion, Teknaf,Teknaf,Teknaf,Coxs Bazar","Not Provided","Not Provided","Not Provided","Not Provided","Regular- 2G","GRAMEENPHONE","Regular- 2G","2018-05-15 18:11:56","2018-05-15 18:11:56"
"64","CXBDR1","22002","CXBDR1B","44474","2200244474","190","120","1000","20.8719","92.2816","JCO Family Quarter, 42 Border Guard Battalion, Teknaf,Teknaf,Teknaf,Coxs Bazar","Not Provided","Not Provided","Not Provided","Not Provided","Regular- 2G","GRAMEENPHONE","Regular- 2G","2018-05-15 18:11:56","2018-05-15 18:11:56"
"65","CXBDR1","22002","CXBDR1C","44475","2200244475","280","120","1000","20.8719","92.2816","JCO Family Quarter, 42 Border Guard Battalion, Teknaf,Teknaf,Teknaf,Coxs Bazar","Not Provided","Not Provided","Not Provided","Not Provided","Regular- 2G","GRAMEENPHONE","Regular- 2G","2018-05-15 18:11:56","2018-05-15 18:11:56"
"66","CXVLK1","22002","CXVLK1C","44442","2200244442","250","120","1000","21.2852","92.1424","Valukia Palong,Sag Bhoitha,Ukhiya,CoxsBazar","Not Provided","Not Provided","Not Provided","Not Provided","Regular- 2G","GRAMEENPHONE","Regular- 2G","2018-05-15 18:11:56","2018-05-15 18:11:56"
"67","CXBHK1","22003","CXBHK1A","3532","220033532","15","120","1000","21.7834","92.0218","Bohaddarkata,Bheola Manik Char,Chakaria,Cox S Bazar, COXBAZAR  BD","Not Provided","Not Provided","Not Provided","Not Provided","Regular- 2G","GRAMEENPHONE","Regular- 2G","2018-05-15 18:11:56","2018-05-15 18:11:56"
"68","CXWKK1","22002","CXWKK1A","23772","2200223772","150","120","1000","21.1158","92.1983","Whychong,Teknaf,Coxs Bazar","Not Provided","Not Provided","Not Provided","Not Provided","Regular- 2G","GRAMEENPHONE","Regular- 2G","2018-05-15 18:11:56","2018-05-15 18:11:56"
"69","CXBHK1","22003","CXBHK1B","3533","220033533","140","120","1000","21.7834","92.0218","Bohaddarkata,Bheola Manik Char,Chakaria,Cox S Bazar, COXBAZAR  BD","Not Provided","Not Provided","Not Provided","Not Provided","Regular- 2G","GRAMEENPHONE","Regular- 2G","2018-05-15 18:11:56","2018-05-15 18:11:56"
"70","CXWKK1","22002","CXWKK1B","23773","2200223773","230","120","1000","21.1158","92.1983","Whychong,Teknaf,Coxs Bazar","Not Provided","Not Provided","Not Provided","Not Provided","Regular- 2G","GRAMEENPHONE","Regular- 2G","2018-05-15 18:11:56","2018-05-15 18:11:56"
"71","CXMHKM","22003","CXMHKMA","65251","2200365251","360","120","1000","21.5246","91.8964","Coxs Bazar, Coxs Bazar  BD","Not Provided","Not Provided","Not Provided","Not Provided","Regular- 2G","GRAMEENPHONE","Regular- 2G","2018-05-15 18:11:56","2018-05-15 18:11:56"
"72","CXBHK1","22003","CXBHK1C","3534","220033534","275","120","1000","21.7834","92.0218","Bohaddarkata,Bheola Manik Char,Chakaria,Cox S Bazar, COXBAZAR  BD","Not Provided","Not Provided","Not Provided","Not Provided","Regular- 2G","GRAMEENPHONE","Regular- 2G","2018-05-15 18:11:56","2018-05-15 18:11:56"
"73","CXWKK1","22002","CXWKK1C","23774","2200223774","340","120","1000","21.1158","92.1983","Whychong,Teknaf,Coxs Bazar","Not Provided","Not Provided","Not Provided","Not Provided","Regular- 2G","GRAMEENPHONE","Regular- 2G","2018-05-15 18:11:56","2018-05-15 18:11:56"
"74","CXUKA1","22002","CXUKA1C","23735","2200223735","220","120","1000","21.2154","92.1672","Kutupalong Kachbunia,Ukhia,Coxs Bazar","Not Provided","Not Provided","Not Provided","Not Provided","Regular- 2G","GRAMEENPHONE","Regular- 2G","2018-05-15 18:11:56","2018-05-15 18:11:56"
"75","CXPTL3","22002","CXPTL3A","3896","220023896","0","120","1000","21.4307","91.9841","Pahartoli 3,Jhilwanja,Cox s Bazar Sadar,Chittagong, CHITTAGONG  BD","Not Provided","Not Provided","Not Provided","Not Provided","Regular- 2G","GRAMEENPHONE","Regular- 2G","2018-05-15 18:11:56","2018-05-15 18:11:56"
"76","CXPTL3","22002","CXPTL3B","3897","220023897","110","120","1000","21.4307","91.9841","Pahartoli 3,Jhilwanja,Cox s Bazar Sadar,Chittagong, CHITTAGONG  BD","Not Provided","Not Provided","Not Provided","Not Provided","Regular- 2G","GRAMEENPHONE","Regular- 2G","2018-05-15 18:11:56","2018-05-15 18:11:56"
"77","CXHBG1","22003","CXHBG1E","764","22003764","160","120","1000","21.8474","92.0556","Harbang,Chokoria,Chokoria,Coxsbazar","Not Provided","Not Provided","Not Provided","Not Provided","Regular- 2G","GRAMEENPHONE","Regular- 2G","2018-05-15 18:11:56","2018-05-15 18:11:56"
"78","CXPTL3","22002","CXPTL3C","3898","220023898","240","120","1000","21.4307","91.9841","Pahartoli 3,Jhilwanja,Cox s Bazar Sadar,Chittagong, CHITTAGONG  BD","Not Provided","Not Provided","Not Provided","Not Provided","Regular- 2G","GRAMEENPHONE","Regular- 2G","2018-05-15 18:11:56","2018-05-15 18:11:56"
"79","CXMRC1","22002","CXMRC1E","816","22002816","175","120","1000","21.3095","92.096","Morichapalong,Ukhia,CoxsBazar","Not Provided","Not Provided","Not Provided","Not Provided","Regular- 2G","GRAMEENPHONE","Regular- 2G","2018-05-15 18:11:56","2018-05-15 18:11:56"
"80","CXYSK1","22003","CXYSK1A","997","22003997","10","120","1000","21.7018","91.9254","Younuskhali Bazar, Kalamarchara, Maheskhali, Coxs Bazar, COXS BAZAR  BD","Not Provided","Not Provided","Not Provided","Not Provided","Regular- 2G","GRAMEENPHONE","Regular- 2G","2018-05-15 18:11:56","2018-05-15 18:11:56"
"81","CXVRK1","22003","CXVRK1A","65274","2200365274","0","120","1000","21.4982","92.0361","Varunkhali Bazar,Coxs Bazar,Coxs Bazar Sadar,Coxs Bazar","Not Provided","Not Provided","Not Provided","Not Provided","Regular- 2G","GRAMEENPHONE","Regular- 2G","2018-05-15 18:11:56","2018-05-15 18:11:56"
"82","CXYSK1","22003","CXYSK1B","1124","220031124","195","120","1000","21.7018","91.9254","Younuskhali Bazar, Kalamarchara, Maheskhali, Coxs Bazar, COXS BAZAR  BD","Not Provided","Not Provided","Not Provided","Not Provided","Regular- 2G","GRAMEENPHONE","Regular- 2G","2018-05-15 18:11:56","2018-05-15 18:11:56"
"83","CXVRK1","22003","CXVRK1B","65275","2200365275","90","120","1000","21.4982","92.0361","Varunkhali Bazar,Coxs Bazar,Coxs Bazar Sadar,Coxs Bazar","Not Provided","Not Provided","Not Provided","Not Provided","Regular- 2G","GRAMEENPHONE","Regular- 2G","2018-05-15 18:11:56","2018-05-15 18:11:56"
"84","CXYSK1","22003","CXYSK1C","1125","220031125","290","120","1000","21.7018","91.9254","Younuskhali Bazar, Kalamarchara, Maheskhali, Coxs Bazar, COXS BAZAR  BD","Not Provided","Not Provided","Not Provided","Not Provided","Regular- 2G","GRAMEENPHONE","Regular- 2G","2018-05-15 18:11:56","2018-05-15 18:11:56"
"85","CXVRK1","22003","CXVRK1C","65276","2200365276","220","120","1000","21.4982","92.0361","Varunkhali Bazar,Coxs Bazar,Coxs Bazar Sadar,Coxs Bazar","Not Provided","Not Provided","Not Provided","Not Provided","Regular- 2G","GRAMEENPHONE","Regular- 2G","2018-05-15 18:11:56","2018-05-15 18:11:56"
"86","CXGTL1","22003","CXGTL1A","13348","2200313348","18","120","1000","21.5702","92.0072","Coxs Bazar, Coxs Bazar  BD","Not Provided","Not Provided","Not Provided","Not Provided","Regular- 2G","GRAMEENPHONE","Regular- 2G","2018-05-15 18:11:56","2018-05-15 18:11:56"
"87","CXGTL1","22003","CXGTL1B","13349","2200313349","110","120","1000","21.5702","92.0072","Coxs Bazar, Coxs Bazar  BD","Not Provided","Not Provided","Not Provided","Not Provided","Regular- 2G","GRAMEENPHONE","Regular- 2G","2018-05-15 18:11:56","2018-05-15 18:11:56"
"88","CXGTL1","22003","CXGTL1C","13365","2200313365","180","120","1000","21.5702","92.0072","Coxs Bazar, Coxs Bazar  BD","Not Provided","Not Provided","Not Provided","Not Provided","Regular- 2G","GRAMEENPHONE","Regular- 2G","2018-05-15 18:11:56","2018-05-15 18:11:56"
"89","CXMIA1","22003","CXMIA1C","23805","2200323805","250","120","1000","21.5205","92.0294","Choufaldondi,Choufaldondi,Coxs Bazar Sadar,CoxsBazar","Not Provided","Not Provided","Not Provided","Not Provided","Regular- 2G","GRAMEENPHONE","Regular- 2G","2018-05-15 18:11:56","2018-05-15 18:11:56"
"90","CXBDK1","22003","CXBDK1E","55036","2200355036","245","120","1000","21.7179","91.9539","Mouza - Badarkhali Roghona, P.S: - Chokoria, Coxsbazar,Chokoria,CoxsBazar","Not Provided","Not Provided","Not Provided","Not Provided","Regular- 2G","GRAMEENPHONE","Regular- 2G","2018-05-15 18:11:56","2018-05-15 18:11:56"
"91","CXMJF1","22003","CXMJF1A","44446","2200344446","45","120","1000","21.7544","92.1206","Kakhra Majher Fari Station,Chakoria,Chakoria,Coxs Bazar","Not Provided","Not Provided","Not Provided","Not Provided","Regular- 2G","GRAMEENPHONE","Regular- 2G","2018-05-15 18:11:56","2018-05-15 18:11:56"
"92","CXMJF1","22003","CXMJF1B","44447","2200344447","120","120","1000","21.7544","92.1206","Kakhra Majher Fari Station,Chakoria,Chakoria,Coxs Bazar","Not Provided","Not Provided","Not Provided","Not Provided","Regular- 2G","GRAMEENPHONE","Regular- 2G","2018-05-15 18:11:56","2018-05-15 18:11:56"
"93","CXMJF1","22003","CXMJF1C","44448","2200344448","270","120","1000","21.7544","92.1206","Kakhra Majher Fari Station,Chakoria,Chakoria,Coxs Bazar","Not Provided","Not Provided","Not Provided","Not Provided","Regular- 2G","GRAMEENPHONE","Regular- 2G","2018-05-15 18:11:56","2018-05-15 18:11:56"
"94","CXMJG1","22003","CXMJG1A","23813","2200323813","340","120","1000","21.7553","92.0525","Maijghona,Sharbil,Chokoria,CoxsBazar","Not Provided","Not Provided","Not Provided","Not Provided","Regular- 2G","GRAMEENPHONE","Regular- 2G","2018-05-15 18:11:56","2018-05-15 18:11:56"
"95","CXBTB1","22003","CXBTB1A","49280","2200349280","345","120","1000","21.7817","92.0415","Coxs Bazar, Coxs Bazar  BD","Not Provided","Not Provided","Not Provided","Not Provided","Regular- 2G","GRAMEENPHONE","Regular- 2G","2018-05-15 18:11:56","2018-05-15 18:11:56"
"96","CXMJG1","22003","CXMJG1B","23814","2200323814","100","120","1000","21.7553","92.0525","Maijghona,Sharbil,Chokoria,CoxsBazar","Not Provided","Not Provided","Not Provided","Not Provided","Regular- 2G","GRAMEENPHONE","Regular- 2G","2018-05-15 18:11:56","2018-05-15 18:11:56"
"97","CXBTB1","22003","CXBTB1B","49281","2200349281","110","120","1000","21.7817","92.0415","Coxs Bazar, Coxs Bazar  BD","Not Provided","Not Provided","Not Provided","Not Provided","Regular- 2G","GRAMEENPHONE","Regular- 2G","2018-05-15 18:11:56","2018-05-15 18:11:56"
"98","CXPMK1","22002","CXPMK1D","2565","220022565","50","120","1000","21.4473","92.0349","Jumchari Bazar, Piamkhali,Coxs Bazar Sadar,Coxs Bazar","Not Provided","Not Provided","Not Provided","Not Provided","Regular- 2G","GRAMEENPHONE","Regular- 2G","2018-05-15 18:11:56","2018-05-15 18:11:56"
"99","CXMJG1","22003","CXMJG1C","23815","2200323815","240","120","1000","21.7553","92.0525","Maijghona,Sharbil,Chokoria,CoxsBazar","Not Provided","Not Provided","Not Provided","Not Provided","Regular- 2G","GRAMEENPHONE","Regular- 2G","2018-05-15 18:11:56","2018-05-15 18:11:56"
"100","PTSDR01","665","B11004A","30550","66530550","0","120","1000","22.36247624","90.3471726","Mrs.FirozaBegum,W/o:AlhajAbdulMajidMia,HotelParkSDORoad,NatunBazar,Patuakhali.Ph#0172094678(Mr.Masud)","Not Provided","Not Provided","Not Provided","Not Provided","Macro- 2G","ROBI","Macro- 2G","2018-05-15 18:11:56","2018-05-15 18:11:56"
"101","PTSDR01","665","B11004B","30551","66530551","120","120","1000","22.36247624","90.3471726","Mrs.FirozaBegum,W/o:AlhajAbdulMajidMia,HotelParkSDORoad,NatunBazar,Patuakhali.Ph#0172094678(Mr.Masud)","Not Provided","Not Provided","Not Provided","Not Provided","Macro- 2G","ROBI","Macro- 2G","2018-05-15 18:11:56","2018-05-15 18:11:56"
"102","PTSDR01","665","B11004C","30552","66530552","240","120","1000","22.36247624","90.3471726","Mrs.FirozaBegum,W/o:AlhajAbdulMajidMia,HotelParkSDORoad,NatunBazar,Patuakhali.Ph#0172094678(Mr.Masud)","Not Provided","Not Provided","Not Provided","Not Provided","Macro- 2G","ROBI","Macro- 2G","2018-05-15 18:11:56","2018-05-15 18:11:56"
"103","PTSDR01","665","B11004D","30553","66530553","0","120","1000","22.36247624","90.3471726","Mrs.FirozaBegum,W/o:AlhajAbdulMajidMia,HotelParkSDORoad,NatunBazar,Patuakhali.Ph#0172094678(Mr.Masud)","Not Provided","Not Provided","Not Provided","Not Provided","Macro- 2G","ROBI","Macro- 2G","2018-05-15 18:11:56","2018-05-15 18:11:56"
"104","PTSDR01","665","B11004E","30554","66530554","120","120","1000","22.36247624","90.3471726","Mrs.FirozaBegum,W/o:AlhajAbdulMajidMia,HotelParkSDORoad,NatunBazar,Patuakhali.Ph#0172094678(Mr.Masud)","Not Provided","Not Provided","Not Provided","Not Provided","Macro- 2G","ROBI","Macro- 2G","2018-05-15 18:11:56","2018-05-15 18:11:56"
"105","PTSDR01","665","B11004F","30555","66530555","240","120","1000","22.36247624","90.3471726","Mrs.FirozaBegum,W/o:AlhajAbdulMajidMia,HotelParkSDORoad,NatunBazar,Patuakhali.Ph#0172094678(Mr.Masud)","Not Provided","Not Provided","Not Provided","Not Provided","Macro- 2G","ROBI","Macro- 2G","2018-05-15 18:11:56","2018-05-15 18:11:56"
"106","BRSDR01","665","B11007A","27501","66527501","0","120","1000","22.16086052","90.12419959","Md. Zakir Hossain,Sultana Ali prousova, P/O+Post:Barguna Sadar,01712994474,01724954229, Dist:Barguna, ","Not Provided","Not Provided","Not Provided","Not Provided","Macro- 2G","ROBI","Macro- 2G","2018-05-15 18:11:56","2018-05-15 18:11:56"
"107","BRSDR01","665","B11007B","27502","66527502","120","120","1000","22.16086052","90.12419959","Md. Zakir Hossain,Sultana Ali prousova, P/O+Post:Barguna Sadar,01712994474,01724954229, Dist:Barguna, ","Not Provided","Not Provided","Not Provided","Not Provided","Macro- 2G","ROBI","Macro- 2G","2018-05-15 18:11:56","2018-05-15 18:11:56"
"108","BRSDR01","665","B11007C","27503","66527503","240","120","1000","22.16086052","90.12419959","Md. Zakir Hossain,Sultana Ali prousova, P/O+Post:Barguna Sadar,01712994474,01724954229, Dist:Barguna, ","Not Provided","Not Provided","Not Provided","Not Provided","Macro- 2G","ROBI","Macro- 2G","2018-05-15 18:11:56","2018-05-15 18:11:56"
"109","PTBFL01","662","B11014A","30556","66230556","60","120","1000","22.41973125","90.54922153","ChairmanGoverningBodyandPrincipal,BauphalCollege,Bauphal,Patuakhali.Ph#04422-56210,01716-779584(principal)","Not Provided","Not Provided","Not Provided","Not Provided","Macro- 2G","ROBI","Macro- 2G","2018-05-15 18:11:56","2018-05-15 18:11:56"
"110","PTBFL01","662","B11014B","30557","66230557","180","120","1000","22.41973125","90.54922153","ChairmanGoverningBodyandPrincipal,BauphalCollege,Bauphal,Patuakhali.Ph#04422-56210,01716-779584(principal)","Not Provided","Not Provided","Not Provided","Not Provided","Macro- 2G","ROBI","Macro- 2G","2018-05-15 18:11:56","2018-05-15 18:11:56"
"111","PTBFL01","662","B11014C","30558","66230558","280","120","1000","22.41973125","90.54922153","ChairmanGoverningBodyandPrincipal,BauphalCollege,Bauphal,Patuakhali.Ph#04422-56210,01716-779584(principal)","Not Provided","Not Provided","Not Provided","Not Provided","Macro- 2G","ROBI","Macro- 2G","2018-05-15 18:11:56","2018-05-15 18:11:56"
"112","BHBRN01","662","B11015A","29001","66229001","0","120","1000","22.501483","90.715157","AbdurRob,S/o:lateAzharAli,BusStandRoad,Borhanuddin,Bhola.Ph#0172-580352,(04922)56258(toAsuganj)","Not Provided","Not Provided","Not Provided","Not Provided","Macro- 2G","ROBI","Macro- 2G","2018-05-15 18:11:56","2018-05-15 18:11:56"
"113","BHBRN01","662","B11015B","29002","66229002","120","120","1000","22.501483","90.715157","AbdurRob,S/o:lateAzharAli,BusStandRoad,Borhanuddin,Bhola.Ph#0172-580352,(04922)56258(toAsuganj)","Not Provided","Not Provided","Not Provided","Not Provided","Macro- 2G","ROBI","Macro- 2G","2018-05-15 18:11:56","2018-05-15 18:11:56"
"114","BHBRN01","662","B11015C","29003","66229003","240","120","1000","22.501483","90.715157","AbdurRob,S/o:lateAzharAli,BusStandRoad,Borhanuddin,Bhola.Ph#0172-580352,(04922)56258(toAsuganj)","Not Provided","Not Provided","Not Provided","Not Provided","Macro- 2G","ROBI","Macro- 2G","2018-05-15 18:11:56","2018-05-15 18:11:56"
"115","PTKLP01","665","B11016A","30559","66530559","0","120","1000","21.980336","90.23026","GaziRafiqulIslam,HotelRuban,CollegeRoad,Khapupara,Patuakhali.Ph#0172074587","Not Provided","Not Provided","Not Provided","Not Provided","Macro- 2G","ROBI","Macro- 2G","2018-05-15 18:11:56","2018-05-15 18:11:56"
"116","PTKLP01","665","B11016B","30560","66530560","120","120","1000","21.980336","90.23026","GaziRafiqulIslam,HotelRuban,CollegeRoad,Khapupara,Patuakhali.Ph#0172074587","Not Provided","Not Provided","Not Provided","Not Provided","Macro- 2G","ROBI","Macro- 2G","2018-05-15 18:11:56","2018-05-15 18:11:56"
"117","PTKLP01","665","B11016C","30561","66530561","240","120","1000","21.980336","90.23026","GaziRafiqulIslam,HotelRuban,CollegeRoad,Khapupara,Patuakhali.Ph#0172074587","Not Provided","Not Provided","Not Provided","Not Provided","Macro- 2G","ROBI","Macro- 2G","2018-05-15 18:11:56","2018-05-15 18:11:56"
"118","PTGCP01","665","B11019A","30562","66530562","60","120","1000","22.17103188","90.40633169","Md.JamalUddinTalukder,s/o:lateHajiRustamAliTalukder,JamalUddinTalukderHouse,SadarRoad,Galachipa,Patuakhali.Ph#0442456329,01715-789813,01721-653444","Not Provided","Not Provided","Not Provided","Not Provided","Macro- 2G","ROBI","Macro- 2G","2018-05-15 18:11:56","2018-05-15 18:11:56"
"119","PTGCP01","665","B11019B","30563","66530563","165","120","1000","22.17103188","90.40633169","Md.JamalUddinTalukder,s/o:lateHajiRustamAliTalukder,JamalUddinTalukderHouse,SadarRoad,Galachipa,Patuakhali.Ph#0442456329,01715-789813,01721-653444","Not Provided","Not Provided","Not Provided","Not Provided","Macro- 2G","ROBI","Macro- 2G","2018-05-15 18:11:56","2018-05-15 18:11:56"
"120","PTGCP01","665","B11019C","30564","66530564","280","120","1000","22.17103188","90.40633169","Md.JamalUddinTalukder,s/o:lateHajiRustamAliTalukder,JamalUddinTalukderHouse,SadarRoad,Galachipa,Patuakhali.Ph#0442456329,01715-789813,01721-653444","Not Provided","Not Provided","Not Provided","Not Provided","Macro- 2G","ROBI","Macro- 2G","2018-05-15 18:11:56","2018-05-15 18:11:56"
"121","BHDLT01","662","B11021A","29004","66229004","20","120","1000","22.600691","90.74654","Md.Siddique,S/o:lateAlhajJoynalAbedin,M/s.HaziStore,Ward-4,Daulatkhan,Bhola.Ph#04924-56191(onreq)0176-695196(fromDhaka)","Not Provided","Not Provided","Not Provided","Not Provided","Macro- 2G","ROBI","Macro- 2G","2018-05-15 18:11:56","2018-05-15 18:11:56"
"122","BHDLT01","662","B11021B","29005","66229005","150","120","1000","22.600691","90.74654","Md.Siddique,S/o:lateAlhajJoynalAbedin,M/s.HaziStore,Ward-4,Daulatkhan,Bhola.Ph#04924-56191(onreq)0176-695196(fromDhaka)","Not Provided","Not Provided","Not Provided","Not Provided","Macro- 2G","ROBI","Macro- 2G","2018-05-15 18:11:56","2018-05-15 18:11:56"
"123","BHDLT01","662","B11021C","29006","66229006","280","120","1000","22.600691","90.74654","Md.Siddique,S/o:lateAlhajJoynalAbedin,M/s.HaziStore,Ward-4,Daulatkhan,Bhola.Ph#04924-56191(onreq)0176-695196(fromDhaka)","Not Provided","Not Provided","Not Provided","Not Provided","Macro- 2G","ROBI","Macro- 2G","2018-05-15 18:11:56","2018-05-15 18:11:56"
"124","BHDLT01","662","B11021D","29007","66229007","20","120","1000","22.600691","90.74654","Md.Siddique,S/o:lateAlhajJoynalAbedin,M/s.HaziStore,Ward-4,Daulatkhan,Bhola.Ph#04924-56191(onreq)0176-695196(fromDhaka)","Not Provided","Not Provided","Not Provided","Not Provided","Macro- 2G","ROBI","Macro- 2G","2018-05-15 18:11:56","2018-05-15 18:11:56"
"125","BHDLT01","662","B11021E","29008","66229008","150","120","1000","22.600691","90.74654","Md.Siddique,S/o:lateAlhajJoynalAbedin,M/s.HaziStore,Ward-4,Daulatkhan,Bhola.Ph#04924-56191(onreq)0176-695196(fromDhaka)","Not Provided","Not Provided","Not Provided","Not Provided","Macro- 2G","ROBI","Macro- 2G","2018-05-15 18:11:56","2018-05-15 18:11:56"
"126","BHDLT01","662","B11021F","29009","66229009","280","120","1000","22.600691","90.74654","Md.Siddique,S/o:lateAlhajJoynalAbedin,M/s.HaziStore,Ward-4,Daulatkhan,Bhola.Ph#04924-56191(onreq)0176-695196(fromDhaka)","Not Provided","Not Provided","Not Provided","Not Provided","Macro- 2G","ROBI","Macro- 2G","2018-05-15 18:11:56","2018-05-15 18:11:56"
"127","BRAMT01","665","B11023A","27504","66527504","20","120","1000","22.1390298","90.22900967","1.Md.MotiurRahman2.Md.MizanurRahmans/o:Late-AbulKashemMiah,Vill-Basuki,Post-Amtali,PS.-Amtali,Barguna.Ph#0172525729,0172-716483,01715-511527","Not Provided","Not Provided","Not Provided","Not Provided","Macro- 2G","ROBI","Macro- 2G","2018-05-15 18:11:56","2018-05-15 18:11:56"
"128","BRAMT01","665","B11023B","27505","66527505","160","120","1000","22.1390298","90.22900967","1.Md.MotiurRahman2.Md.MizanurRahmans/o:Late-AbulKashemMiah,Vill-Basuki,Post-Amtali,PS.-Amtali,Barguna.Ph#0172525729,0172-716483,01715-511527","Not Provided","Not Provided","Not Provided","Not Provided","Macro- 2G","ROBI","Macro- 2G","2018-05-15 18:11:56","2018-05-15 18:11:56"
"129","BRAMT01","665","B11023C","27506","66527506","270","120","1000","22.1390298","90.22900967","1.Md.MotiurRahman2.Md.MizanurRahmans/o:Late-AbulKashemMiah,Vill-Basuki,Post-Amtali,PS.-Amtali,Barguna.Ph#0172525729,0172-716483,01715-511527","Not Provided","Not Provided","Not Provided","Not Provided","Macro- 2G","ROBI","Macro- 2G","2018-05-15 18:11:56","2018-05-15 18:11:56"
"130","PTMZG01","665","B11027A","30565","66530565","120","120","1000","22.369732","90.216364","AlhajGaziFazlulHaque,S/o:lateSekendarAliGazi,KakaliVilla,SubidkhaliCollegeRoad,Mirzagonj,Patuakhali.Ph#04426-75365","Not Provided","Not Provided","Not Provided","Not Provided","Macro- 2G","ROBI","Macro- 2G","2018-05-15 18:11:56","2018-05-15 18:11:56"
"131","PTMZG01","665","B11027B","30566","66530566","210","120","1000","22.369732","90.216364","AlhajGaziFazlulHaque,S/o:lateSekendarAliGazi,KakaliVilla,SubidkhaliCollegeRoad,Mirzagonj,Patuakhali.Ph#04426-75365","Not Provided","Not Provided","Not Provided","Not Provided","Macro- 2G","ROBI","Macro- 2G","2018-05-15 18:11:56","2018-05-15 18:11:56"
"132","PTMZG01","665","B11027C","30567","66530567","20","120","1000","22.369732","90.216364","AlhajGaziFazlulHaque,S/o:lateSekendarAliGazi,KakaliVilla,SubidkhaliCollegeRoad,Mirzagonj,Patuakhali.Ph#04426-75365","Not Provided","Not Provided","Not Provided","Not Provided","Macro- 2G","ROBI","Macro- 2G","2018-05-15 18:11:56","2018-05-15 18:11:56"
"133","BHSDR01","662","B11028A","29010","66229010","350","120","1000","22.68291","90.64571","MohammadRafiqulIslam,S/o:LateLokmanMia,MahabubaMarket,SadarRoad,BholaCity,Bhola.Ph#0176-000460","Not Provided","Not Provided","Not Provided","Not Provided","Macro- 2G","ROBI","Macro- 2G","2018-05-15 18:11:56","2018-05-15 18:11:56"
"134","BHSDR01","662","B11028B","29011","66229011","100","120","1000","22.68291","90.64571","MohammadRafiqulIslam,S/o:LateLokmanMia,MahabubaMarket,SadarRoad,BholaCity,Bhola.Ph#0176-000460","Not Provided","Not Provided","Not Provided","Not Provided","Macro- 2G","ROBI","Macro- 2G","2018-05-15 18:11:56","2018-05-15 18:11:56"
"135","BHSDR01","662","B11028C","29012","66229012","230","120","1000","22.68291","90.64571","MohammadRafiqulIslam,S/o:LateLokmanMia,MahabubaMarket,SadarRoad,BholaCity,Bhola.Ph#0176-000460","Not Provided","Not Provided","Not Provided","Not Provided","Macro- 2G","ROBI","Macro- 2G","2018-05-15 18:11:56","2018-05-15 18:11:56"
"136","BHLMN01","662","B11029A","29013","66229013","0","120","1000","22.341289","90.732071","1.BazlurRahmanShikder,2.MoazzemHossainShikder,S/o:lateAlhajHarjanAliShikder,1169,LalmohonPaurashabaRoad,Lalmohon,Bhola.Ph#04925-75822,0176-668652(moazzem0191-3576701)","Not Provided","Not Provided","Not Provided","Not Provided","Macro- 2G","ROBI","Macro- 2G","2018-05-15 18:11:56","2018-05-15 18:11:56"
"137","BHLMN01","662","B11029B","29014","66229014","90","120","1000","22.341289","90.732071","1.BazlurRahmanShikder,2.MoazzemHossainShikder,S/o:lateAlhajHarjanAliShikder,1169,LalmohonPaurashabaRoad,Lalmohon,Bhola.Ph#04925-75822,0176-668652(moazzem0191-3576701)","Not Provided","Not Provided","Not Provided","Not Provided","Macro- 2G","ROBI","Macro- 2G","2018-05-15 18:11:56","2018-05-15 18:11:56"
"138","BHLMN01","662","B11029C","29015","66229015","190","120","1000","22.341289","90.732071","1.BazlurRahmanShikder,2.MoazzemHossainShikder,S/o:lateAlhajHarjanAliShikder,1169,LalmohonPaurashabaRoad,Lalmohon,Bhola.Ph#04925-75822,0176-668652(moazzem0191-3576701)","Not Provided","Not Provided","Not Provided","Not Provided","Macro- 2G","ROBI","Macro- 2G","2018-05-15 18:11:56","2018-05-15 18:11:56"
"139","BHCFN01","662","B11030A","29016","66229016","115","120","1000","22.18604","90.76023","MD. Jamal Mia & Mrs. Najma Begum ,Hollding No: 137, (Goni Tower) Char Fasson, Bhola,MD. Ali Ajgar (Husband of Mrs. Salma Begum) 01823-230026","Not Provided","Not Provided","Not Provided","Not Provided","Macro- 2G","ROBI","Macro- 2G","2018-05-15 18:11:56","2018-05-15 18:11:56"
"140","BHCFN01","662","B11030B","29017","66229017","220","120","1000","22.18604","90.76023","MD. Jamal Mia & Mrs. Najma Begum ,Hollding No: 137, (Goni Tower) Char Fasson, Bhola,MD. Ali Ajgar (Husband of Mrs. Salma Begum) 01823-230026","Not Provided","Not Provided","Not Provided","Not Provided","Macro- 2G","ROBI","Macro- 2G","2018-05-15 18:11:56","2018-05-15 18:11:56"
"141","BHCFN01","662","B11030C","29018","66229018","325","120","1000","22.18604","90.76023","MD. Jamal Mia & Mrs. Najma Begum ,Hollding No: 137, (Goni Tower) Char Fasson, Bhola,MD. Ali Ajgar (Husband of Mrs. Salma Begum) 01823-230026","Not Provided","Not Provided","Not Provided","Not Provided","Macro- 2G","ROBI","Macro- 2G","2018-05-15 18:11:56","2018-05-15 18:11:56"
"142","BHCFN01","662","B11030E","29200","66229200","220","120","1000","22.18604","90.76023","MD. Jamal Mia & Mrs. Najma Begum ,Hollding No: 137, (Goni Tower) Char Fasson, Bhola,MD. Ali Ajgar (Husband of Mrs. Salma Begum) 01823-230026","Not Provided","Not Provided","Not Provided","Not Provided","Macro- 2G","ROBI","Macro- 2G","2018-05-15 18:11:56","2018-05-15 18:11:56"
"143","PTDMK01","662","B11044A","30568","66230568","10","120","1000","22.46326329","90.38338921","1.Treasurer-RepresentativeofPatuakhaliScience&TechnologyUniversity,Thana:Dumki,Dist:Patuakhali.Ph#0172-088716","Not Provided","Not Provided","Not Provided","Not Provided","Macro- 2G","ROBI","Macro- 2G","2018-05-15 18:11:56","2018-05-15 18:11:56"
"144","PTDMK01","662","B11044B","30569","66230569","140","120","1000","22.46326329","90.38338921","1.Treasurer-RepresentativeofPatuakhaliScience&TechnologyUniversity,Thana:Dumki,Dist:Patuakhali.Ph#0172-088716","Not Provided","Not Provided","Not Provided","Not Provided","Macro- 2G","ROBI","Macro- 2G","2018-05-15 18:11:56","2018-05-15 18:11:56"
"145","PTDMK01","662","B11044C","30570","66230570","275","120","1000","22.46326329","90.38338921","1.Treasurer-RepresentativeofPatuakhaliScience&TechnologyUniversity,Thana:Dumki,Dist:Patuakhali.Ph#0172-088716","Not Provided","Not Provided","Not Provided","Not Provided","Macro- 2G","ROBI","Macro- 2G","2018-05-15 18:11:56","2018-05-15 18:11:56"
"146","PTSDR02","665","B11050A","30571","66530571","40","120","1000","22.35961822","90.31561824","Md.MotiurRahman,S/o:lateGagonAliMollah,Vill:WestKalikapur,Chourasta,Post&Ps:Patuakhali,Dist:Patuakhali.Ph#01718-555671","Not Provided","Not Provided","Not Provided","Not Provided","Macro- 2G","ROBI","Macro- 2G","2018-05-15 18:11:56","2018-05-15 18:11:56"
"147","PTSDR02","665","B11050B","30572","66530572","160","120","1000","22.35961822","90.31561824","Md.MotiurRahman,S/o:lateGagonAliMollah,Vill:WestKalikapur,Chourasta,Post&Ps:Patuakhali,Dist:Patuakhali.Ph#01718-555671","Not Provided","Not Provided","Not Provided","Not Provided","Macro- 2G","ROBI","Macro- 2G","2018-05-15 18:11:56","2018-05-15 18:11:56"
"148","PTSDR02","665","B11050C","30573","66530573","280","120","1000","22.35961822","90.31561824","Md.MotiurRahman,S/o:lateGagonAliMollah,Vill:WestKalikapur,Chourasta,Post&Ps:Patuakhali,Dist:Patuakhali.Ph#01718-555671","Not Provided","Not Provided","Not Provided","Not Provided","Macro- 2G","ROBI","Macro- 2G","2018-05-15 18:11:56","2018-05-15 18:11:56"
"149","PTSDR02","665","B11050D","30793","66530793","40","120","1000","22.35961822","90.31561824","Md.MotiurRahman,S/o:lateGagonAliMollah,Vill:WestKalikapur,Chourasta,Post&Ps:Patuakhali,Dist:Patuakhali.Ph#01718-555671","Not Provided","Not Provided","Not Provided","Not Provided","Macro- 2G","ROBI","Macro- 2G","2018-05-15 18:11:56","2018-05-15 18:11:56"
"150","Gorya Bazar","5251","N/A","55084","525155084","0","120","1000","88.59675","26.04080556","Chongakhata,nNewGoreyaHat, Sadar, Thakurgaon","Not Provided","Not Provided","Not Provided","Not Provided","Regular Cell- 2G","TELETALK","Regular Cell- 2G","2018-05-15 18:11:56","2018-05-15 18:11:56"
"151","Gorya Bazar","5251","N/A","55085","525155085","90","120","1000","88.59675","26.04080556","Chongakhata,nNewGoreyaHat, Sadar, Thakurgaon","Not Provided","Not Provided","Not Provided","Not Provided","Regular Cell- 2G","TELETALK","Regular Cell- 2G","2018-05-15 18:11:56","2018-05-15 18:11:56"
"152","Gorya Bazar","5251","N/A","55086","525155086","280","120","1000","88.59675","26.04080556","Chongakhata,nNewGoreyaHat, Sadar, Thakurgaon","Not Provided","Not Provided","Not Provided","Not Provided","Regular Cell- 2G","TELETALK","Regular Cell- 2G","2018-05-15 18:11:56","2018-05-15 18:11:56"
"153","Bhulli Bazar G","5251","N/A","34978","525134978","15","120","1000","88.534268","26.125069","Kochubari, Thakugaon Sadar, Thakurgaon","Not Provided","Not Provided","Not Provided","Not Provided","Regular Cell- 2G","TELETALK","Regular Cell- 2G","2018-05-15 18:11:56","2018-05-15 18:11:56"
"154","Bhulli Bazar G","5251","N/A","34979","525134979","145","120","1000","88.534268","26.125069","Kochubari, Thakugaon Sadar, Thakurgaon","Not Provided","Not Provided","Not Provided","Not Provided","Regular Cell- 2G","TELETALK","Regular Cell- 2G","2018-05-15 18:11:56","2018-05-15 18:11:56"
"155","Bhulli Bazar G","5251","N/A","34980","525134980","250","120","1000","88.534268","26.125069","Kochubari, Thakugaon Sadar, Thakurgaon","Not Provided","Not Provided","Not Provided","Not Provided","Regular Cell- 2G","TELETALK","Regular Cell- 2G","2018-05-15 18:11:56","2018-05-15 18:11:56"
"156","Pirganj Laldighi JoySadan W","5912","N/A","34930","591234930","0","120","1000","89.300259","25.441889","0","Not Provided","Not Provided","Not Provided","Not Provided","Regular Cell- 3G","TELETALK","Regular Cell- 3G","2018-05-15 18:11:56","2018-05-15 18:11:56"
"157","Pirganj Laldighi JoySadan W","5912","N/A","34931","591234931","120","120","1000","89.300259","25.441889","0","Not Provided","Not Provided","Not Provided","Not Provided","Regular Cell- 3G","TELETALK","Regular Cell- 3G","2018-05-15 18:11:56","2018-05-15 18:11:56"
"158","Pirganj Laldighi JoySadan W","5912","N/A","34932","591234932","240","120","1000","89.300259","25.441889","0","Not Provided","Not Provided","Not Provided","Not Provided","Regular Cell- 3G","TELETALK","Regular Cell- 3G","2018-05-15 18:11:56","2018-05-15 18:11:56"
"159","Pirganj Laldighi JoySadan W","5912","N/A","34933","591234933","0","120","1000","89.300259","25.441889","0","Not Provided","Not Provided","Not Provided","Not Provided","Regular Cell- 3G","TELETALK","Regular Cell- 3G","2018-05-15 18:11:56","2018-05-15 18:11:56"
"160","Pirganj Laldighi JoySadan W","5912","N/A","34934","591234934","120","120","1000","89.300259","25.441889","0","Not Provided","Not Provided","Not Provided","Not Provided","Regular Cell- 3G","TELETALK","Regular Cell- 3G","2018-05-15 18:11:56","2018-05-15 18:11:56"
"161","Pirganj Laldighi JoySadan W","5912","N/A","34935","591234935","240","120","1000","89.300259","25.441889","0","Not Provided","Not Provided","Not Provided","Not Provided","Regular Cell- 3G","TELETALK","Regular Cell- 3G","2018-05-15 18:11:56","2018-05-15 18:11:56"
"162","Katihat Hat","5251","N/A","34981","525134981","0","120","1000","88.31727778","25.90380556","Madhobpur, Kathihar Hat, Ranishonkoil, Thakurgaon","Not Provided","Not Provided","Not Provided","Not Provided","Regular Cell- 2G","TELETALK","Regular Cell- 2G","2018-05-15 18:11:56","2018-05-15 18:11:56"
"163","Katihat Hat","5251","N/A","34982","525134982","120","120","1000","88.31727778","25.90380556","Madhobpur, Kathihar Hat, Ranishonkoil, Thakurgaon","Not Provided","Not Provided","Not Provided","Not Provided","Regular Cell- 2G","TELETALK","Regular Cell- 2G","2018-05-15 18:11:56","2018-05-15 18:11:56"
"164","Katihat Hat","5251","N/A","34983","525134983","240","120","1000","88.31727778","25.90380556","Madhobpur, Kathihar Hat, Ranishonkoil, Thakurgaon","Not Provided","Not Provided","Not Provided","Not Provided","Regular Cell- 2G","TELETALK","Regular Cell- 2G","2018-05-15 18:11:56","2018-05-15 18:11:56"
"165","PIRERBAZAR W","7901","N/A","271","7901271","30","120","1000","91.96809605","24.93083714","Rafi Tower, United Housing, Flat Number-69, Khadimnogor, Sylhet.","Not Provided","Not Provided","Not Provided","Not Provided","Regular Cell- 3G","TELETALK","Regular Cell- 3G","2018-05-15 18:11:56","2018-05-15 18:11:56"
"166","PIRERBAZAR W","7901","N/A","272","7901272","105","120","1000","91.96809605","24.93083714","Rafi Tower, United Housing, Flat Number-69, Khadimnogor, Sylhet.","Not Provided","Not Provided","Not Provided","Not Provided","Regular Cell- 3G","TELETALK","Regular Cell- 3G","2018-05-15 18:11:56","2018-05-15 18:11:56"
"167","PIRERBAZAR W","7901","N/A","273","7901273","210","120","1000","91.96809605","24.93083714","Rafi Tower, United Housing, Flat Number-69, Khadimnogor, Sylhet.","Not Provided","Not Provided","Not Provided","Not Provided","Regular Cell- 3G","TELETALK","Regular Cell- 3G","2018-05-15 18:11:56","2018-05-15 18:11:56"
"168","PIRERBAZAR W","7901","N/A","274","7901274","30","120","1000","91.96809605","24.93083714","Rafi Tower, United Housing, Flat Number-69, Khadimnogor, Sylhet.","Not Provided","Not Provided","Not Provided","Not Provided","Regular Cell- 3G","TELETALK","Regular Cell- 3G","2018-05-15 18:11:56","2018-05-15 18:11:56"
"169","PIRERBAZAR W","7901","N/A","275","7901275","105","120","1000","91.96809605","24.93083714","Rafi Tower, United Housing, Flat Number-69, Khadimnogor, Sylhet.","Not Provided","Not Provided","Not Provided","Not Provided","Regular Cell- 3G","TELETALK","Regular Cell- 3G","2018-05-15 18:11:56","2018-05-15 18:11:56"
"170","PIRERBAZAR W","7901","N/A","276","7901276","210","120","1000","91.96809605","24.93083714","Rafi Tower, United Housing, Flat Number-69, Khadimnogor, Sylhet.","Not Provided","Not Provided","Not Provided","Not Provided","Regular Cell- 3G","TELETALK","Regular Cell- 3G","2018-05-15 18:11:56","2018-05-15 18:11:56"
"171","ASHUGANJ W","7901","N/A","871","7901871","30","120","1000","91.00166409","24.04046784","BTCL Exchange, Ashuganj, Brahmanbaria","Not Provided","Not Provided","Not Provided","Not Provided","Regular Cell- 3G","TELETALK","Regular Cell- 3G","2018-05-15 18:11:56","2018-05-15 18:11:56"
"172","ASHUGANJ W","7901","N/A","872","7901872","120","120","1000","91.00166409","24.04046784","BTCL Exchange, Ashuganj, Brahmanbaria","Not Provided","Not Provided","Not Provided","Not Provided","Regular Cell- 3G","TELETALK","Regular Cell- 3G","2018-05-15 18:11:56","2018-05-15 18:11:56"
"173","ASHUGANJ W","7901","N/A","873","7901873","210","120","1000","91.00166409","24.04046784","BTCL Exchange, Ashuganj, Brahmanbaria","Not Provided","Not Provided","Not Provided","Not Provided","Regular Cell- 3G","TELETALK","Regular Cell- 3G","2018-05-15 18:11:56","2018-05-15 18:11:56"
"174","ASHUGANJ W","7901","N/A","874","7901874","30","120","1000","91.00166409","24.04046784","BTCL Exchange, Ashuganj, Brahmanbaria","Not Provided","Not Provided","Not Provided","Not Provided","Regular Cell- 3G","TELETALK","Regular Cell- 3G","2018-05-15 18:11:56","2018-05-15 18:11:56"
"175","ASHUGANJ W","7901","N/A","875","7901875","120","120","1000","91.00166409","24.04046784","BTCL Exchange, Ashuganj, Brahmanbaria","Not Provided","Not Provided","Not Provided","Not Provided","Regular Cell- 3G","TELETALK","Regular Cell- 3G","2018-05-15 18:11:56","2018-05-15 18:11:56"
"176","ASHUGANJ W","7901","N/A","876","7901876","210","120","1000","91.00166409","24.04046784","BTCL Exchange, Ashuganj, Brahmanbaria","Not Provided","Not Provided","Not Provided","Not Provided","Regular Cell- 3G","TELETALK","Regular Cell- 3G","2018-05-15 18:11:56","2018-05-15 18:11:56"
"177","BEERTOLA W","7901","N/A","881","7901881","0","120","1000","91.07539904","24.04556589","Vill.-Beertola Bazar, P.O- Beertola Bazar, P.S.- Sarail,Dist.- Brahmanbaria","Not Provided","Not Provided","Not Provided","Not Provided","Regular Cell- 3G","TELETALK","Regular Cell- 3G","2018-05-15 18:11:56","2018-05-15 18:11:56"
"178","BEERTOLA W","7901","N/A","882","7901882","100","120","1000","91.07539904","24.04556589","Vill.-Beertola Bazar, P.O- Beertola Bazar, P.S.- Sarail,Dist.- Brahmanbaria","Not Provided","Not Provided","Not Provided","Not Provided","Regular Cell- 3G","TELETALK","Regular Cell- 3G","2018-05-15 18:11:56","2018-05-15 18:11:56"
"179","BEERTOLA W","7901","N/A","883","7901883","260","120","1000","91.07539904","24.04556589","Vill.-Beertola Bazar, P.O- Beertola Bazar, P.S.- Sarail,Dist.- Brahmanbaria","Not Provided","Not Provided","Not Provided","Not Provided","Regular Cell- 3G","TELETALK","Regular Cell- 3G","2018-05-15 18:11:56","2018-05-15 18:11:56"
"180","BEERTOLA W","7901","N/A","884","7901884","0","120","1000","91.07539904","24.04556589","Vill.-Beertola Bazar, P.O- Beertola Bazar, P.S.- Sarail,Dist.- Brahmanbaria","Not Provided","Not Provided","Not Provided","Not Provided","Regular Cell- 3G","TELETALK","Regular Cell- 3G","2018-05-15 18:11:56","2018-05-15 18:11:56"
"181","BEERTOLA W","7901","N/A","885","7901885","100","120","1000","91.07539904","24.04556589","Vill.-Beertola Bazar, P.O- Beertola Bazar, P.S.- Sarail,Dist.- Brahmanbaria","Not Provided","Not Provided","Not Provided","Not Provided","Regular Cell- 3G","TELETALK","Regular Cell- 3G","2018-05-15 18:11:56","2018-05-15 18:11:56"
"182","BEERTOLA W","7901","N/A","886","7901886","260","120","1000","91.07539904","24.04556589","Vill.-Beertola Bazar, P.O- Beertola Bazar, P.S.- Sarail,Dist.- Brahmanbaria","Not Provided","Not Provided","Not Provided","Not Provided","Regular Cell- 3G","TELETALK","Regular Cell- 3G","2018-05-15 18:11:56","2018-05-15 18:11:56"
"183","SARAIL W","7901","N/A","931","7901931","0","120","1000","91.11783418","24.07238588","Sarail telephone exchange, Brahmanbaria","Not Provided","Not Provided","Not Provided","Not Provided","Regular Cell- 3G","TELETALK","Regular Cell- 3G","2018-05-15 18:11:56","2018-05-15 18:11:56"
"184","SARAIL W","7901","N/A","932","7901932","120","120","1000","91.11783418","24.07238588","Sarail telephone exchange, Brahmanbaria","Not Provided","Not Provided","Not Provided","Not Provided","Regular Cell- 3G","TELETALK","Regular Cell- 3G","2018-05-15 18:11:56","2018-05-15 18:11:56"
"185","SARAIL W","7901","N/A","933","7901933","260","120","1000","91.11783418","24.07238588","Sarail telephone exchange, Brahmanbaria","Not Provided","Not Provided","Not Provided","Not Provided","Regular Cell- 3G","TELETALK","Regular Cell- 3G","2018-05-15 18:11:56","2018-05-15 18:11:56"
"186","SARAIL W","7901","N/A","934","7901934","0","120","1000","91.11783418","24.07238588","Sarail telephone exchange, Brahmanbaria","Not Provided","Not Provided","Not Provided","Not Provided","Regular Cell- 3G","TELETALK","Regular Cell- 3G","2018-05-15 18:11:56","2018-05-15 18:11:56"
"187","SARAIL W","7901","N/A","935","7901935","120","120","1000","91.11783418","24.07238588","Sarail telephone exchange, Brahmanbaria","Not Provided","Not Provided","Not Provided","Not Provided","Regular Cell- 3G","TELETALK","Regular Cell- 3G","2018-05-15 18:11:56","2018-05-15 18:11:56"
"188","SARAIL W","7901","N/A","936","7901936","260","120","1000","91.11783418","24.07238588","Sarail telephone exchange, Brahmanbaria","Not Provided","Not Provided","Not Provided","Not Provided","Regular Cell- 3G","TELETALK","Regular Cell- 3G","2018-05-15 18:11:56","2018-05-15 18:11:56"
"189","GOKORNOGHAT W","7901","N/A","1041","79011041","0","120","1000","91.08369","23.95525"," Vill: Gokornoghat-3400, P.S: Brahmanbaria Sadar, Dist: Brahmanbaria","Not Provided","Not Provided","Not Provided","Not Provided","Regular Cell- 3G","TELETALK","Regular Cell- 3G","2018-05-15 18:11:56","2018-05-15 18:11:56"
"190","GOKORNOGHAT W","7901","N/A","1042","79011042","120","120","1000","91.08369","23.95525"," Vill: Gokornoghat-3400, P.S: Brahmanbaria Sadar, Dist: Brahmanbaria","Not Provided","Not Provided","Not Provided","Not Provided","Regular Cell- 3G","TELETALK","Regular Cell- 3G","2018-05-15 18:11:56","2018-05-15 18:11:56"
"191","GOKORNOGHAT W","7901","N/A","1043","79011043","270","120","1000","91.08369","23.95525"," Vill: Gokornoghat-3400, P.S: Brahmanbaria Sadar, Dist: Brahmanbaria","Not Provided","Not Provided","Not Provided","Not Provided","Regular Cell- 3G","TELETALK","Regular Cell- 3G","2018-05-15 18:11:56","2018-05-15 18:11:56"
"192","GOKORNOGHAT W","7901","N/A","1044","79011044","0","120","1000","91.08369","23.95525"," Vill: Gokornoghat-3400, P.S: Brahmanbaria Sadar, Dist: Brahmanbaria","Not Provided","Not Provided","Not Provided","Not Provided","Regular Cell- 3G","TELETALK","Regular Cell- 3G","2018-05-15 18:11:56","2018-05-15 18:11:56"
"193","GOKORNOGHAT W","7901","N/A","1045","79011045","120","120","1000","91.08369","23.95525"," Vill: Gokornoghat-3400, P.S: Brahmanbaria Sadar, Dist: Brahmanbaria","Not Provided","Not Provided","Not Provided","Not Provided","Regular Cell- 3G","TELETALK","Regular Cell- 3G","2018-05-15 18:11:56","2018-05-15 18:11:56"
"194","GOKORNOGHAT W","7901","N/A","1046","79011046","270","120","1000","91.08369","23.95525"," Vill: Gokornoghat-3400, P.S: Brahmanbaria Sadar, Dist: Brahmanbaria","Not Provided","Not Provided","Not Provided","Not Provided","Regular Cell- 3G","TELETALK","Regular Cell- 3G","2018-05-15 18:11:56","2018-05-15 18:11:56"
"195","N/A","4902","N/A","45391","490245391","0","120","1000","89.03441","22.81314","Mufti Traders, Jhaudanga Bazar, Satkhira","Not Provided","Not Provided","Not Provided","Not Provided","Regular Cell- 3G","TELETALK","Regular Cell- 3G","2018-05-15 18:11:56","2018-05-15 18:11:56"
"196","N/A","4902","N/A","45392","490245392","100","120","1000","89.03441","22.81314","Mufti Traders, Jhaudanga Bazar, Satkhira","Not Provided","Not Provided","Not Provided","Not Provided","Regular Cell- 3G","TELETALK","Regular Cell- 3G","2018-05-15 18:11:56","2018-05-15 18:11:56"
"197","N/A","4902","N/A","45393","490245393","220","120","1000","89.03441","22.81314","Mufti Traders, Jhaudanga Bazar, Satkhira","Not Provided","Not Provided","Not Provided","Not Provided","Regular Cell- 3G","TELETALK","Regular Cell- 3G","2018-05-15 18:11:56","2018-05-15 18:11:56"
"198","N/A","4902","N/A","45394","490245394","0","120","1000","89.03441","22.81314","Mufti Traders, Jhaudanga Bazar, Satkhira","Not Provided","Not Provided","Not Provided","Not Provided","Regular Cell- 3G","TELETALK","Regular Cell- 3G","2018-05-15 18:11:56","2018-05-15 18:11:56"
"199","N/A","4902","N/A","45395","490245395","100","120","1000","89.03441","22.81314","Mufti Traders, Jhaudanga Bazar, Satkhira","Not Provided","Not Provided","Not Provided","Not Provided","Regular Cell- 3G","TELETALK","Regular Cell- 3G","2018-05-15 18:11:56","2018-05-15 18:11:56"
"200","","","","","","0","","","","","","","","","","",",","","2018-05-15 18:11:56","2018-05-15 18:11:56"
